KUIPER-00008            
1 63724U 25088A   26028.91326798  .00007493  00000+0  62822-3 0  9993
2 63724  51.8895 268.2891 0007705 326.6393  33.4091 14.99253855 42093
KUIPER-00009            
1 63725U 25088B   26028.94024617 -.00001800  00000+0 -20617-3 0  9996
2 63725  51.9016 282.4015 0010759 332.9550  27.0850 14.80014770 41894
KUIPER-00010            
1 63726U 25088C   26028.93255312  .00004567  00000+0  62765-3 0  9995
2 63726  51.8996 258.8962 0000782  59.1557 300.9482 14.79936277 41841
KUIPER-00011            
1 63727U 25088D   26028.95793406  .00004776  00000+0  65372-3 0  9998
2 63727  51.9008 266.3447 0006442   4.3167 355.7850 14.80015805 41874
KUIPER-00012            
1 63728U 25088E   26028.82679685  .00004226  00000+0  62722-3 0  9993
2 63728  51.8995 251.3742 0008569   1.5938 358.5049 14.76781406 42029
KUIPER-00013            
1 63729U 25088F   26028.93941930  .00026980  00000+0  35565-2 0  9996
2 63729  51.9011 283.8743 0003293 284.3037  75.7559 14.79899421 41686
KUIPER-00014            
1 63730U 25088G   26028.93556061  .00008043  00000+0  10758-2 0  9992
2 63730  51.9044 284.8368 0004813 346.2182  13.8648 14.80205657 41480
KUIPER-00015            
1 63731U 25088H   26028.97333137  .00009320  00000+0  11760-2 0  9997
2 63731  51.8997 294.9221 0009043 305.9566  54.0558 14.82481433 41808
